1 08820U 76039A   03218.53513186  .00000017  00000-0  10000-3 0  9429
2 08820 109.8066 198.8275 0044607 290.7674  68.8136  6.38664267380276
